{"type": "FeatureCollection", "features": [ {"type": "Feature", "properties": {"norad_id": 32289, "name": "YAOGAN-3", "group": "resource", "lat": -27.48821017881085, "lon": 24.533880539080663, "alt_km": 604.2214974759509, "timestamp": "2025-12-19T20:42:59.737678+00:00", "meta": {"OBJECT_NAME": "YAOGAN-3", "OBJECT_ID": "2007-055A", "EPOCH": "2025-12-19T07:56:46.209696", "MEAN_MOTION": 14.89888677, "ECCENTRICITY": 0.00012536, "INCLINATION": 97.8361, "RA_OF_ASC_NODE": 19.8975, "ARG_OF_PERICENTER": 72.2749, "MEAN_ANOMALY": 287.8605, "EPHEMERIS_TYPE": 0, "CLASSIFICATION_TYPE": "U", "NORAD_CAT_ID": 32289, "ELEMENT_SET_NO": 999, "REV_AT_EPOCH": 97907, "BSTAR": 0.00016900083, "MEAN_MOTION_DOT": 1.569e-05, "MEAN_MOTION_DDOT": 0}, "tle": {"line1": "1 32289U 07055A   25353.33109039  .00001569  00000+0  16900-3 0  9996", "line2": "2 32289  97.8361  19.8975 0001253  72.2749 287.8605 14.89888677979075"}}, "geometry": {"type": "Point", "coordinates": [24.533880539080663, -27.48821017881085]}}, {"type": "Feature", "properties": {"norad_id": 32376, "name": "COSMO-SKYMED 2", "group": "resource", "lat": 52.857268628310905, "lon": 164.54356852026544, "alt_km": 616.7741396305264, "timestamp": "2025-12-19T20:42:59.737690+00:00", "meta": {"OBJECT_NAME": "COSMO-SKYMED 2", "OBJECT_ID": "2007-059A", "EPOCH": "2025-12-19T07:30:49.116672", "MEAN_MOTION": 14.82150209, "ECCENTRICITY": 0.00013489, "INCLINATION": 97.8803, "RA_OF_ASC_NODE": 174.5379, "ARG_OF_PERICENTER": 83.1823, "MEAN_ANOMALY": 276.9544, "EPHEMERIS_TYPE": 0, "CLASSIFICATION_TYPE": "U", "NORAD_CAT_ID": 32376, "ELEMENT_SET_NO": 999, "REV_AT_EPOCH": 97535, "BSTAR": 5.477437e-05, "MEAN_MOTION_DOT": 3.84e-06, "MEAN_MOTION_DDOT": 0}, "tle": {"line1": "1 32376U 07059A   25353.31306848  .00000384  00000+0  54774-4 0  9998", "line2": "2 32376  97.8803 174.5379 0001348  83.1823 276.9544 14.82150209975353"}}, "geometry": {"type": "Point", "coordinates": [164.54356852026544, 52.857268628310905]}}, {"type": "Feature", "properties": {"norad_id": 32382, "name": "RADARSAT-2", "group": "resource", "lat": 71.00593968766883, "lon": -155.6370829223503, "alt_km": 784.1714910868322, "timestamp": "2025-12-19T20:42:59.737701+00:00", "meta": {"OBJECT_NAME": "RADARSAT-2", "OBJECT_ID": "2007-061A", "EPOCH": "2025-12-19T06:47:01.760064", "MEAN_MOTION": 14.2998404, "ECCENTRICITY": 0.00011153, "INCLINATION": 98.5792, "RA_OF_ASC_NODE": 357.7781, "ARG_OF_PERICENTER": 84.3007, "MEAN_ANOMALY": 275.8302, "EPHEMERIS_TYPE": 0, "CLASSIFICATION_TYPE": "U", "NORAD_CAT_ID": 32382, "ELEMENT_SET_NO": 999, "REV_AT_EPOCH": 94024, "BSTAR": 0.00010067672, "MEAN_MOTION_DOT": 2.16e-06, "MEAN_MOTION_DDOT": 0}, "tle": {"line1": "1 32382U 07061A   25353.28265926  .00000216  00000+0  10068-3 0  9996", "line2": "2 32382  98.5792 357.7781 0001115  84.3007 275.8302 14.29984040940245"}}, "geometry": {"type": "Point", "coordinates": [-155.6370829223503, 71.00593968766883]}}, {"type": "Feature", "properties": {"norad_id": 32783, "name": "CARTOSAT-2A", "group": "resource", "lat": 67.41036588000685, "lon": -117.31797121657216, "alt_km": 631.1835693802259, "timestamp": "2025-12-19T20:42:59.737711+00:00", "meta": {"OBJECT_NAME": "CARTOSAT-2A", "OBJECT_ID": "2008-021A", "EPOCH": "2025-12-19T07:13:32.202624", "MEAN_MOTION": 14.78948374, "ECCENTRICITY": 0.00113446, "INCLINATION": 97.7926, "RA_OF_ASC_NODE": 42.9201, "ARG_OF_PERICENTER": 343.1432, "MEAN_ANOMALY": 16.9401, "EPHEMERIS_TYPE": 0, "CLASSIFICATION_TYPE": "U", "NORAD_CAT_ID": 32783, "ELEMENT_SET_NO": 999, "REV_AT_EPOCH": 95221, "BSTAR": 0.00010457074, "MEAN_MOTION_DOT": 7.22e-06, "MEAN_MOTION_DDOT": 0}, "tle": {"line1": "1 32783U 08021A   25353.30106716  .00000722  00000+0  10457-3 0  9996", "line2": "2 32783  97.7926  42.9201 0011344 343.1432  16.9401 14.78948374952211"}}, "geometry": {"type": "Point", "coordinates": [-117.31797121657216, 67.41036588000685]}}, {"type": "Feature", "properties": {"norad_id": 33320, "name": "HUANJING 1A (HJ-1A)", "group": "resource", "lat": 82.28651934189618, "lon": -115.02132545474802, "alt_km": 608.4859648790307, "timestamp": "2025-12-19T20:42:59.737722+00:00", "meta": {"OBJECT_NAME": "HUANJING 1A (HJ-1A)", "OBJECT_ID": "2008-041A", "EPOCH": "2025-12-19T07:21:30.368736", "MEAN_MOTION": 14.83413315, "ECCENTRICITY": 0.00197251, "INCLINATION": 97.6534, "RA_OF_ASC_NODE": 341.3311, "ARG_OF_PERICENTER": 13.5553, "MEAN_ANOMALY": 346.6187, "EPHEMERIS_TYPE": 0, "CLASSIFICATION_TYPE": "U", "NORAD_CAT_ID": 33320, "ELEMENT_SET_NO": 999, "REV_AT_EPOCH": 93173, "BSTAR": 0.00011708039, "MEAN_MOTION_DOT": 9.13e-06, "MEAN_MOTION_DDOT": 0}, "tle": {"line1": "1 33320U 08041A   25353.30660149  .00000913  00000+0  11708-3 0  9993", "line2": "2 33320  97.6534 341.3311 0019725  13.5553 346.6187 14.83413315931730"}}, "geometry": {"type": "Point", "coordinates": [-115.02132545474802, 82.28651934189618]}}, {"type": "Feature", "properties": {"norad_id": 33321, "name": "HUANJING 1B (HJ-1B)", "group": "resource", "lat": -62.391311338122875, "lon": 0.41374406421205606, "alt_km": 639.34024022002, "timestamp": "2025-12-19T20:42:59.737734+00:00", "meta": {"OBJECT_NAME": "HUANJING 1B (HJ-1B)", "OBJECT_ID": "2008-041B", "EPOCH": "2025-12-19T06:25:34.560768", "MEAN_MOTION": 14.82837298, "ECCENTRICITY": 0.00380187, "INCLINATION": 97.6394, "RA_OF_ASC_NODE": 344.9738, "ARG_OF_PERICENTER": 55.0491, "MEAN_ANOMALY": 305.4284, "EPHEMERIS_TYPE": 0, "CLASSIFICATION_TYPE": "U", "NORAD_CAT_ID": 33321, "ELEMENT_SET_NO": 999, "REV_AT_EPOCH": 93174, "BSTAR": 0.00012850277, "MEAN_MOTION_DOT": 1.001e-05, "MEAN_MOTION_DDOT": 0}, "tle": {"line1": "1 33321U 08041B   25353.26776112  .00001001  00000+0  12850-3 0  9995", "line2": "2 33321  97.6394 344.9738 0038018  55.0491 305.4284 14.82837298931746"}}, "geometry": {"type": "Point", "coordinates": [0.41374406421205606, -62.391311338122875]}}, {"type": "Feature", "properties": {"norad_id": 33331, "name": "GEOEYE 1", "group": "resource", "lat": -0.3792971593299671, "lon": -115.00007280164183, "alt_km": 680.5246493437762, "timestamp": "2025-12-19T20:42:59.737745+00:00", "meta": {"OBJECT_NAME": "GEOEYE 1", "OBJECT_ID": "2008-042A", "EPOCH": "2025-12-19T05:08:24.472896", "MEAN_MOTION": 14.64708636, "ECCENTRICITY": 0.00027954, "INCLINATION": 98.1246, "RA_OF_ASC_NODE": 64.4134, "ARG_OF_PERICENTER": 256.8072, "MEAN_ANOMALY": 103.282, "EPHEMERIS_TYPE": 0, "CLASSIFICATION_TYPE": "U", "NORAD_CAT_ID": 33331, "ELEMENT_SET_NO": 999, "REV_AT_EPOCH": 92380, "BSTAR": 8.9041847e-05, "MEAN_MOTION_DOT": 4.26e-06, "MEAN_MOTION_DDOT": 0}, "tle": {"line1": "1 33331U 08042A   25353.21417214  .00000426  00000+0  89042-4 0  9995", "line2": "2 33331  98.1246  64.4134 0002795 256.8072 103.2820 14.64708636923803"}}, "geometry": {"type": "Point", "coordinates": [-115.00007280164183, -0.3792971593299671]}}, {"type": "Feature", "properties": {"norad_id": 33396, "name": "THEOS", "group": "resource", "lat": -25.764573962892165, "lon": 55.92495646150726, "alt_km": 831.0386492647804, "timestamp": "2025-12-19T20:42:59.737756+00:00", "meta": {"OBJECT_NAME": "THEOS", "OBJECT_ID": "2008-049A", "EPOCH": "2025-12-19T07:18:40.609152", "MEAN_MOTION": 14.20097154, "ECCENTRICITY": 0.00011552, "INCLINATION": 98.5864, "RA_OF_ASC_NODE": 51.201, "ARG_OF_PERICENTER": 95.9625, "MEAN_ANOMALY": 264.1683, "EPHEMERIS_TYPE": 0, "CLASSIFICATION_TYPE": "U", "NORAD_CAT_ID": 33396, "ELEMENT_SET_NO": 999, "REV_AT_EPOCH": 89243, "BSTAR": 6.91281e-06, "MEAN_MOTION_DOT": -2.8e-07, "MEAN_MOTION_DDOT": 0}, "tle": {"line1": "1 33396U 08049A   25353.30463668 -.00000028  00000+0  69128-5 0  9990", "line2": "2 33396  98.5864  51.2010 0001155  95.9625 264.1683 14.20097154892432"}}, "geometry": {"type": "Point", "coordinates": [55.92495646150726, -25.764573962892165]}}, {"type": "Feature", "properties": {"norad_id": 33412, "name": "COSMO-SKYMED 3", "group": "resource", "lat": 80.72069804273221, "lon": 146.79884429922646, "alt_km": 537.5200484176967, "timestamp": "2025-12-19T20:42:59.737798+00:00", "meta": {"OBJECT_NAME": "COSMO-SKYMED 3", "OBJECT_ID": "2008-054A", "EPOCH": "2025-12-19T07:34:40.789632", "MEAN_MOTION": 15.05411755, "ECCENTRICITY": 0.00167476, "INCLINATION": 97.847, "RA_OF_ASC_NODE": 203.818, "ARG_OF_PERICENTER": 149.8179, "MEAN_ANOMALY": 210.4015, "EPHEMERIS_TYPE": 0, "CLASSIFICATION_TYPE": "U", "NORAD_CAT_ID": 33412, "ELEMENT_SET_NO": 999, "REV_AT_EPOCH": 92986, "BSTAR": 0.00012891721, "MEAN_MOTION_DOT": 1.789e-05, "MEAN_MOTION_DDOT": 0}, "tle": {"line1": "1 33412U 08054A   25353.31574988  .00001789  00000+0  12892-3 0  9992", "line2": "2 33412  97.8470 203.8180 0016747 149.8179 210.4015 15.05411755929867"}}, "geometry": {"type": "Point", "coordinates": [146.79884429922646, 80.72069804273221]}}, {"type": "Feature", "properties": {"norad_id": 33446, "name": "YAOGAN-4", "group": "resource", "lat": -25.03972027334846, "lon": 100.1643546256779, "alt_km": 626.9568635694923, "timestamp": "2025-12-19T20:42:59.737814+00:00", "meta": {"OBJECT_NAME": "YAOGAN-4", "OBJECT_ID": "2008-061A", "EPOCH": "2025-12-19T05:12:57.035520", "MEAN_MOTION": 14.8270017, "ECCENTRICITY": 0.00131785, "INCLINATION": 97.919, "RA_OF_ASC_NODE": 283.2531, "ARG_OF_PERICENTER": 300.5796, "MEAN_ANOMALY": 59.4117, "EPHEMERIS_TYPE": 0, "CLASSIFICATION_TYPE": "U", "NORAD_CAT_ID": 33446, "ELEMENT_SET_NO": 999, "REV_AT_EPOCH": 91899, "BSTAR": 0.00012404803, "MEAN_MOTION_DOT": 9.48e-06, "MEAN_MOTION_DDOT": 0}, "tle": {"line1": "1 33446U 08061A   25353.21732680  .00000948  00000+0  12405-3 0  9997", "line2": "2 33446  97.9190 283.2531 0013178 300.5796  59.4117 14.82700170918994"}}, "geometry": {"type": "Point", "coordinates": [100.1643546256779, -25.03972027334846]}}]}